{
    "links": {
        "self": "http://www.neowsapp.com/rest/v1/neo/54079052?api_key=iIulBulltgU6a56xZRHN4H3l9WmuAYTsLGpBGhQ2"
    },
    "id": "54079052",
    "neo_reference_id": "54079052",
    "name": "(2020 UD6)",
    "designation": "2020 UD6",
    "nasa_jpl_url": "http://ssd.jpl.nasa.gov/sbdb.cgi?sstr=54079052",
    "absolute_magnitude_h": 24.433,
    "estimated_diameter": {
        "kilometers": {
            "estimated_diameter_min": 0.034510796,
            "estimated_diameter_max": 0.0771684858
        },
        "meters": {
            "estimated_diameter_min": 34.5107960072,
            "estimated_diameter_max": 77.1684858297
        },
        "miles": {
            "estimated_diameter_min": 0.0214440078,
            "estimated_diameter_max": 0.0479502592
        },
        "feet": {
            "estimated_diameter_min": 113.2243999723,
            "estimated_diameter_max": 253.1774550496
        }
    },
    "is_potentially_hazardous_asteroid": false,
    "close_approach_data": [
        {
            "close_approach_date": "2020-10-25",
            "close_approach_date_full": "2020-Oct-25 05:15",
            "epoch_date_close_approach": 1603602900000,
            "relative_velocity": {
                "kilometers_per_second": "14.5954319726",
                "kilometers_per_hour": "52543.5551014799",
                "miles_per_hour": "32648.5217795834"
            },
            "miss_distance": {
                "astronomical": "0.1787635709",
                "lunar": "69.5390290801",
                "kilometers": "26742649.440233983",
                "miles": "16617111.8164476454"
            },
            "orbiting_body": "Earth"
        }
    ],
    "orbital_data": {
        "orbit_id": "1",
        "orbit_determination_date": "2020-10-26 10:12:03",
        "first_observation_date": "2020-10-22",
        "last_observation_date": "2020-10-24",
        "data_arc_in_days": 2,
        "observations_used": 11,
        "orbit_uncertainty": "9",
        "minimum_orbit_intersection": ".178762",
        "jupiter_tisserand_invariant": "4.928",
        "epoch_osculation": "2459145.5",
        "eccentricity": ".1418447718661523",
        "semi_major_axis": "1.280470268851432",
        "inclination": "28.30867998984035",
        "ascending_node_longitude": "28.10994911310873",
        "orbital_period": "529.240017921682",
        "perihelion_distance": "1.09884225568481",
        "perihelion_argument": "63.160306183544",
        "aphelion_distance": "1.462098282018054",
        "perihelion_time": "2459214.570724993665",
        "mean_anomaly": "313.0166651128051",
        "mean_motion": ".6802206707907592",
        "equinox": "J2000",
        "orbit_class": {
            "orbit_class_type": "AMO",
            "orbit_class_description": "Near-Earth asteroid orbits similar to that of 1221 Amor",
            "orbit_class_range": "1.017 AU < q (perihelion) < 1.3 AU"
        }
    },
    "is_sentry_object": false
}